OBJECT_NAME,OBJECT_ID,EPOCH,MEAN_MOTION,ECCENTRICITY,INCLINATION,RA_OF_ASC_NODE,ARG_OF_PERICENTER,MEAN_ANOMALY,EPHEMERIS_TYPE,CLASSIFICATION_TYPE,NORAD_CAT_ID,ELEMENT_SET_NO,REV_AT_EPOCH,BSTAR,MEAN_MOTION_DOT,MEAN_MOTION_DDOT
H-2A R/B,2006-002B,2026-07-18T03:53:20.752800,15.18473670,.0050971,98.2601,357.8078,156.0067,204.3557,0,U,28932,999,11422,.20389903E-3,.4262E-4,0
RESURS-DK 1,2006-021A,2026-07-18T13:34:06.914784,15.13325666,.00073027,69.9304,258.3198,267.3280,92.7050,0,U,29228,999,10732,.54664059E-4,.867E-5,0
CZ-4B R/B,2006-046C,2026-07-18T13:35:13.907616,15.17996210,.0032916,97.5434,244.0773,170.4924,189.6940,0,U,29507,999,7989,.96747636E-4,.1923E-4,0
CZ-2C R/B,2007-010B,2026-07-18T13:12:31.595616,14.20282332,.00577241,98.4121,306.3709,273.8109,85.6470,0,U,31114,999,99829,.40060273E-4,.45E-6,0
COSMO-SKYMED 1,2007-023A,2026-07-18T14:43:51.405024,14.97230090,.00016912,97.8850,31.7358,100.5171,259.6241,0,U,31598,999,3449,.14165256E-3,.1579E-4,0
COSMOS 2428,2007-029A,2026-07-18T12:09:00.014688,14.12936588,.00072489,70.9383,288.7199,74.7600,285.4322,0,U,31792,999,98257,.17768496E-3,.283E-5,0
SL-16 R/B,2007-029B,2026-07-18T14:10:33.200256,14.14853609,.00019146,70.9742,257.2149,257.3549,264.6800,0,U,31793,999,98388,.17099067E-3,.282E-5,0
KORONAS-FOTON,2009-003A,2026-07-18T06:36:12.574656,15.46346873,.00118946,82.4311,139.8160,52.9228,307.3107,0,U,33504,999,96590,.14858259E-3,.7391E-4,0
CZ-2C R/B,2011-030B,2026-07-18T07:54:54.051264,14.81535588,.00507086,97.8671,154.1587,285.6816,230.2841,0,U,37731,999,80943,.60483873E-4,.429E-5,0
H-2A R/B,2012-025E,2026-07-18T09:31:25.156416,14.95842011,.00426376,98.4847,177.1221,244.2112,115.4704,0,U,38341,999,76775,.68495906E-4,.707E-5,0
SHIJIAN-16 (SJ-16),2013-057A,2026-07-18T16:11:15.277632,14.92674866,.0015671,74.9741,297.0447,156.3292,203.8621,0,U,39358,999,69104,.30515186E-4,.286E-5,0
SL-4 R/B,2014-021B,2026-07-17T21:46:24.383424,15.42515791,.00895469,51.6063,60.2073,218.4688,140.9892,0,U,39679,999,67635,.12227121E-3,.576E-4,0
ALOS-2,2014-029A,2026-07-18T14:07:22.104192,14.79473285,.0001616,97.9232,296.3037,91.6846,268.4551,0,U,39766,999,65622,.13124854E-3,.929E-5,0
YAOGAN-29,2015-069A,2026-07-18T14:49:27.158880,14.83106731,.00004626,98.0013,228.2986,1.7312,358.3903,0,U,41038,999,57528,-.9587535E-5,-.132E-5,0
ASTRO-H (HITOMI),2016-012A,2026-07-18T10:06:14.638464,15.10639796,.00096469,30.9977,232.4505,207.7740,152.2384,0,U,41337,999,57201,.64174204E-4,.1185E-4,0
HXMT (HUIYAN),2017-034A,2026-07-18T13:46:49.699776,15.18704649,.00318724,43.0153,8.2384,341.9513,18.0202,0,U,42758,999,50243,.99475076E-4,.188E-4,0
SAOCOM 1A,2018-076A,2026-07-18T14:18:12.374784,14.82146839,.0001413,97.8884,25.8876,86.6747,273.4628,0,U,43641,999,42075,-.22674358E-4,-.233E-5,0
H-2A R/B,2018-084L,2026-07-18T06:22:03.393984,15.46275522,.00203686,98.8523,84.9703,288.9138,70.9899,0,U,43682,999,42592,.23267667E-3,.11428E-3,0
SAOCOM 1B,2020-059A,2026-07-18T15:03:07.479360,14.82145997,.0001518,97.8891,25.0149,84.3665,275.7722,0,U,46265,999,31814,.62145164E-4,.442E-5,0
CSS (TIANHE),2021-035A,2026-07-17T12:32:16.126368,15.58143309,.0001921,41.4691,137.7269,301.5742,58.4908,0,U,48274,999,29790,.18813E-4,.1129E-4,0
COSMOS 2550,2021-056A,2026-07-18T15:36:02.668032,15.33847804,.00085353,67.1439,4.7319,269.7438,90.2738,0,U,48865,999,28354,.87582812E-4,.2692E-4,0
CZ-2C R/B,2022-058K,2026-07-18T12:07:07.127040,15.64029106,.00301428,50.1860,0.2868,36.5675,323.7350,0,U,52794,999,23054,.24205197E-3,.23418E-3,0
CZ-2C R/B,2022-132E,2026-07-17T23:56:16.304352,15.75241570,.00089342,97.2889,207.4843,329.3088,30.7654,0,U,54039,999,21079,.29840195E-3,.44818E-3,0
GSLV R/B,2022-138AN,2026-07-18T04:39:28.753056,14.97390721,.00231879,87.3816,122.5725,42.3526,317.9490,0,U,54149,999,20345,.12522998E-3,.1492E-4,0
XRISM,2023-137A,2026-07-18T04:56:11.328288,15.12682622,.00078538,31.0010,158.6362,276.0934,83.8810,0,U,57800,999,15756,.12223057E-3,.2291E-4,0
ACS3,2024-077B,2026-07-18T04:39:56.685312,13.95327555,.01287573,97.1755,111.1141,33.4328,327.4885,0,U,59588,999,11236,.43059113E-2,.6221E-4,0
SPACEMOBILE-003,2024-163A,2026-07-18T04:05:59.019072,15.20713856,.00044615,52.9670,166.9598,203.3197,156.7595,0,U,61045,999,10248,.71564826E-4,.1268E-4,0
SPACEMOBILE-005,2024-163B,2026-07-18T06:51:23.658336,15.20722937,.00085608,52.9757,166.3840,205.2960,154.7616,0,U,61046,999,10249,.11125988E-3,.2152E-4,0
SPACEMOBILE-001,2024-163C,2026-07-18T03:39:43.074432,15.20705143,.00067837,52.9727,166.7053,200.9381,159.1336,0,U,61047,999,10247,.19358543E-4,.103E-5,0
SPACEMOBILE-002,2024-163D,2026-07-18T06:25:45.243264,15.20679207,.00054138,52.9785,166.2157,203.1224,156.9528,0,U,61048,999,10249,-.42131939E-3,-.9691E-4,0
